[{"OBJECT_NAME":"STARLINK-35054","OBJECT_ID":"2025-191E","EPOCH":"2026-03-09T14:45:26.376768","MEAN_MOTION":15.05645356,"ECCENTRICITY":0.0002304,"INCLINATION":97.6016,"RA_OF_ASC_NODE":301.384,"ARG_OF_PERICENTER":92.8669,"MEAN_ANOMALY":267.2821,"EPHEMERIS_TYPE":0,"CLASSIFICATION_TYPE":"U","NORAD_CAT_ID":65383,"ELEMENT_SET_NO":999,"REV_AT_EPOCH":3025,"BSTAR":0.00011497,"MEAN_MOTION_DOT":1.598e-5,"MEAN_MOTION_DDOT":0},{"OBJECT_NAME":"COSMOS 2251 DEB","OBJECT_ID":"1993-036BPT","EPOCH":"2026-03-03T18:02:37.907232","MEAN_MOTION":15.02748901,"ECCENTRICITY":0.00784494,"INCLINATION":73.9982,"RA_OF_ASC_NODE":105.7002,"ARG_OF_PERICENTER":203.8682,"MEAN_ANOMALY":155.8863,"EPHEMERIS_TYPE":0,"CLASSIFICATION_TYPE":"U","NORAD_CAT_ID":37968,"ELEMENT_SET_NO":999,"REV_AT_EPOCH":61435,"BSTAR":0.00086959674,"MEAN_MOTION_DOT":0.0001241,"MEAN_MOTION_DDOT":0}]
